     2.100          NAVIGATION                              RINEX VERSION / TYPE
fic2rin                                 07/25/2013 00:14:22 PGM / RUN BY / DATE
                                                            END OF HEADER
19 13  7 24 11 59 44.0 -.391231384128D-03 -.295585778076D-11  .000000000000D+00
     .200000000000D+01 -.138875000000D+03  .427017787005D-08 -.218253052387D+01
    -.718608498573D-05  .946285179816D-02  .893324613571D-05  .515373223495D+04
     .302384000000D+06  .279396772385D-07  .285944244513D+01 -.651925802231D-07
     .963522811255D+00  .207687500000D+03  .347113531769D+00 -.803319175754D-08
    -.378944355982D-09  .100000000000D+01  .175000000000D+04  .000000000000D+00
     .240000000000D+01  .000000000000D+00 -.144354999065D-07  .200000000000D+01
     .295206000000D+06  .400000000000D+01
31 13  7 24 11 59 44.0  .321581494063D-03  .102318153949D-11  .000000000000D+00
     .120000000000D+02  .104218750000D+03  .393909265045D-08  .208824430380D+01
     .558607280254D-05  .785124895629D-02  .114496797323D-04  .515363932800D+04
     .302384000000D+06  .124797224998D-06  .698025123640D+00  .484287738800D-07
     .980380092355D+00  .165531250000D+03 -.734362120101D+00 -.766746223772D-08
     .528593446610D-10  .100000000000D+01  .175000000000D+04  .000000000000D+00
     .240000000000D+01  .000000000000D+00 -.130385160446D-07  .120000000000D+02
     .295206000000D+06  .400000000000D+01
 1 13  7 24 12  0  0.0  .541983172297D-04  .500222085975D-11  .000000000000D+00
     .640000000000D+02  .968750000000D+00  .417660254369D-08  .270581190720D+01
     .124797224998D-06  .211849715561D-02  .137444585562D-04  .515370091438D+04
     .302400000000D+06  .186264514923D-08 -.246713757889D+01  .186264514923D-07
     .960508749433D+00  .112281250000D+03  .291783662989D+00 -.782425448303D-08
     .508949771229D-09  .100000000000D+01  .175000000000D+04  .000000000000D+00
     .240000000000D+01  .000000000000D+00  .838190317154D-08  .640000000000D+02
     .295206000000D+06  .400000000000D+01
 2 13  7 24 12  0  0.0  .443234574050D-03  .181898940355D-11  .000000000000D+00
     .210000000000D+02 -.121562500000D+02  .452554565000D-08 -.281868682896D+01
    -.609084963799D-06  .124890782172D-01  .127442181110D-04  .515370222092D+04
     .302400000000D+06 -.298023223877D-07 -.249005651518D+01 -.176951289177D-06
     .939035048933D+00  .120125000000D+03 -.257522692989D+01 -.781032533140D-08
     .492520515456D-09  .100000000000D+01  .175000000000D+04  .000000000000D+00
     .240000000000D+01  .000000000000D+00 -.172294676304D-07  .210000000000D+02
     .295206000000D+06  .400000000000D+01
 3 13  7 24 12  0  0.0  .236775726080D-03  .488853402203D-11  .000000000000D+00
     .990000000000D+02 -.142812500000D+03  .502735226654D-08 -.265241684852D+01
    -.725500285625D-05  .165507051861D-01  .528618693352D-05  .515371581650D+04
     .302400000000D+06  .206753611565D-06  .262314010975D+01  .502914190292D-07
     .935316510133D+00  .259625000000D+03  .131000639441D+01 -.832963267692D-08
    -.426089176896D-09  .100000000000D+01  .175000000000D+04  .000000000000D+00
     .240000000000D+01  .000000000000D+00 -.465661287308D-08  .990000000000D+02
     .295206000000D+06  .400000000000D+01
 4 13  7 24 12  0  0.0  .280917622149D-03  .103455022327D-10  .000000000000D+00
     .210000000000D+02 -.465625000000D+01  .471948229967D-08  .409261112282D+00
     .149011611938D-07  .103699037572D-01  .123158097267D-04  .515358263588D+04
     .302400000000D+06 -.175088644028D-06 -.247367489019D+01  .124797224998D-06
     .938056421107D+00  .132875000000D+03  .992933497723D+00 -.817391190481D-08
     .388587614805D-09  .100000000000D+01  .175000000000D+04  .000000000000D+00
     .240000000000D+01  .000000000000D+00 -.605359673500D-08  .210000000000D+02
     .295206000000D+06  .400000000000D+01
 5 13  7 24 12  0  0.0 -.398941803724D-03 -.454747350886D-12  .000000000000D+00
     .560000000000D+02  .329687500000D+02  .524986153495D-08 -.550345081065D+00
     .183284282684D-05  .310654565692D-02  .442564487457D-05  .515365633392D+04
     .302400000000D+06  .204890966415D-07 -.142424773578D+01 -.558793544769D-08
     .947945359649D+00  .283093750000D+03  .247203952625D+00 -.854821321025D-08
     .358943522867D-09  .100000000000D+01  .175000000000D+04  .000000000000D+00
     .240000000000D+01  .000000000000D+00 -.977888703346D-08  .560000000000D+02
     .295206000000D+06  .400000000000D+01
 6 13  7 24 12  0  0.0  .127508305013D-03 -.183035808732D-10  .000000000000D+00
     .150000000000D+02 -.133656250000D+03  .493270546698D-08 -.834930411757D+00
    -.694394111633D-05  .809517875314D-02  .646524131298D-05  .515368266106D+04
     .302400000000D+06 -.186264514923D-07  .270302701588D+01 -.147148966789D-06
     .941966859649D+00  .246000000000D+03 -.264444336860D+00 -.849642533879D-08
    -.462162108050D-09  .100000000000D+01  .175000000000D+04  .000000000000D+00
     .240000000000D+01  .000000000000D+00 -.512227416039D-08  .150000000000D+02
     .295206000000D+06  .400000000000D+01
 7 13  7 24 12  0  0.0  .239582266659D-03  .420641299570D-11  .000000000000D+00
     .122000000000D+03  .983125000000D+02  .402766776853D-08  .208620208626D+01
     .522099435329D-05  .669237377588D-02  .126175582409D-04  .515368957138D+04
     .302400000000D+06 -.121071934700D-06  .693246374460D+00  .152736902237D-06
     .975395235572D+00  .144781250000D+03 -.291895741093D+01 -.782711174491D-08
     .172864343351D-09  .100000000000D+01  .175000000000D+04  .000000000000D+00
     .240000000000D+01  .000000000000D+00 -.107102096081D-07  .122000000000D+03
     .295206000000D+06  .400000000000D+01
 8 13  7 24 12  0  0.0  .757537782192D-05  .227373675443D-12  .000000000000D+00
     .770000000000D+02  .104625000000D+03  .356443418728D-08  .151723600811D+01
     .575184822083D-05  .131993502146D-01  .122115015984D-04  .515371999359D+04
     .302400000000D+06  .260770320892D-07  .785769024834D+00  .236555933952D-06
     .998151887433D+00  .163468750000D+03 -.286231048871D+01 -.771424990090D-08
     .118219210019D-09  .100000000000D+01  .175000000000D+04  .000000000000D+00
     .340000000000D+01  .000000000000D+00 -.372529029846D-08  .770000000000D+02
     .295206000000D+06  .400000000000D+01
 9 13  7 24 12  0  0.0  .256645493209D-03  .261479726760D-11  .000000000000D+00
     .920000000000D+02  .996562500000D+02  .376694262257D-08  .313808794221D+01
     .530108809471D-05  .173634261591D-01  .126324594021D-04  .515278377533D+04
     .302400000000D+06  .363215804100D-06  .670438988601D+00  .100582838058D-06
     .984026826747D+00  .142343750000D+03  .169411227336D+01 -.746209654056D-08
     .168935608275D-09  .100000000000D+01  .175000000000D+04  .000000000000D+00
     .240000000000D+01  .000000000000D+00 -.558793544769D-08  .920000000000D+02
     .295206000000D+06  .400000000000D+01
10 13  7 24 12  0  0.0 -.880584120750D-04 -.136424205266D-11  .000000000000D+00
     .860000000000D+02  .302812500000D+02  .552380151708D-08 -.349501068202D+00
     .179000198841D-05  .125314136967D-01  .459887087345D-05  .515363877678D+04
     .302400000000D+06  .745058059692D-08 -.140514862782D+01  .154599547386D-06
     .942769299474D+00  .282375000000D+03  .807454076035D+00 -.883072497800D-08
     .329656588663D-09  .100000000000D+01  .175000000000D+04  .000000000000D+00
     .340000000000D+01  .000000000000D+00 -.232830643654D-08  .860000000000D+02
     .295206000000D+06  .400000000000D+01
11 13  7 24 12  0  0.0 -.403746496886D-03 -.352429196937D-11  .000000000000D+00
     .900000000000D+01 -.692187500000D+02  .560630495368D-08  .229776258994D+01
    -.360421836376D-05  .142463968368D-01  .138822942972D-04  .515369781685D+04
     .302400000000D+06  .163912773132D-06 -.276827966781D+01 -.229105353355D-06
     .889542837715D+00  .689687500000D+02  .118677099903D+01 -.832856120372D-08
     .190722230061D-09  .100000000000D+01  .175000000000D+04  .000000000000D+00
     .240000000000D+01  .000000000000D+00 -.116415321827D-07  .900000000000D+01
     .295206000000D+06  .400000000000D+01
13 13  7 24 12  0  0.0  .968873500824D-04 -.375166564481D-11  .000000000000D+00
     .930000000000D+02 -.392812500000D+02  .421696136765D-08 -.186850549558D+01
    -.188127160072D-05  .510371034034D-02  .107083469629D-04  .515372347069D+04
     .302400000000D+06 -.558793544769D-07 -.272924760320D+00  .521540641785D-07
     .981138251112D+00  .188281250000D+03  .217645621443D+01 -.780603943859D-08
    -.595024785171D-09  .100000000000D+01  .175000000000D+04  .000000000000D+00
     .240000000000D+01  .000000000000D+00 -.107102096081D-07  .930000000000D+02
     .295206000000D+06  .400000000000D+01
14 13  7 24 12  0  0.0  .218955334276D-03 -.454747350886D-12  .000000000000D+00
     .107000000000D+03 -.341250000000D+02  .435446709532D-08 -.163836592497D+01
    -.169873237610D-05  .718935602345D-02  .990182161331D-05  .515376890373D+04
     .302400000000D+06  .119209289551D-06 -.302564258879D+00  .104308128357D-06
     .973772451268D+00  .192937500000D+03 -.203206237009D+01 -.779532470656D-08
    -.506449667090D-09  .100000000000D+01  .175000000000D+04  .000000000000D+00
     .340000000000D+01  .000000000000D+00 -.884756445885D-08  .107000000000D+03
     .295206000000D+06  .400000000000D+01
15 13  7 24 12  0  0.0 -.129028689116D-03 -.170530256582D-11  .000000000000D+00
     .190000000000D+02 -.520312500000D+02  .519950229443D-08 -.215912539846D+01
    -.292249023914D-05  .548165827058D-02  .870972871780D-05  .515379511261D+04
     .302400000000D+06 -.409781932831D-07 -.404308685468D+00 -.160187482834D-06
     .940298817049D+00  .203125000000D+03  .160938905077D+00 -.834963351004D-08
    -.477519890620D-09  .100000000000D+01  .175000000000D+04  .000000000000D+00
     .240000000000D+01  .000000000000D+00 -.977888703346D-08  .190000000000D+02
     .295206000000D+06  .400000000000D+01
